FOX-1CLIFF (AO-95)      
1 43770U 18099N   26194.68304622  .00006119  00000+0  23179-3 0  9992
2 43770  97.4375 254.8390 0007145 246.2412 113.8077 15.27253452417260
RANGE-A                 
1 43773U 18099R   26194.68975921  .00002206  00000+0  12637-3 0  9991
2 43773  97.3954 236.4947 0008599 251.2531 108.7768 15.13600429416502
SNUSAT-2                
1 43782U 18099AA  26194.63072291  .00004921  00000+0  21688-3 0  9996
2 43782  97.4048 247.6122 0010071 193.2269 166.8705 15.22224857417051
SNUGLITE                
1 43784U 18099AC  26194.67528031  .00006629  00000+0  24731-3 0  9999
2 43784  97.3858 248.7017 0003470 163.6611 196.4741 15.27737175417363
ITASAT                  
1 43786U 18099AE  26194.63128044  .00003908  00000+0  18775-3 0  9995
2 43786  97.4017 245.6182 0010808 256.6062 103.3968 15.19370289416927
EAGLET-I                
1 43790U 18099AJ  26193.58069118  .00001913  00000+0  11153-3 0  9996
2 43790  97.4222 242.5773 0009508 254.7473 105.2707 15.13122395416178
ESEO                    
1 43792U 18099AL  26194.58823469  .00001420  00000+0  10600-3 0  9995
2 43792  97.3955 230.8446 0010885 239.9765 120.0383 15.04317800415775
THEA                    
1 43796U 18099AQ  26194.72589926  .00010759  00000+0  30985-3 0  9995
2 43796  97.4436 264.6906 0007890 179.0906 181.0353 15.35903376416760
ASTROCAST 0.1           
1 43798U 18099AS  26194.78685753  .00022749  00000+0  38740-3 0  9997
2 43798  97.4375 274.1474 0005721 134.4275 225.7446 15.51384541418558
JY1SAT (JO-97)          
1 43803U 18099AX  26194.70877882  .00010252  00000+0  30900-3 0  9998
2 43803  97.4122 257.6480 0006676 162.6699 197.4773 15.34488293417693
SUOMI-100               
1 43804U 18099AY  26194.71609488  .00007692  00000+0  27531-3 0  9995
2 43804  97.4178 255.0189 0010406 177.0817 183.0486 15.29010197417477
CENTAURI-1              
1 43809U 18099BD  26194.66546709  .00002678  00000+0  14019-3 0  9996
2 43809  97.4209 245.8180 0012821 230.6125 129.3974 15.16615743416519
GLOBAL-2                
1 43812U 18099BG  26194.60368368  .00001300  00000+0  86450-4 0  9997
2 43812  97.3544 230.0186 0007459  71.6172 288.5867 15.08819838415893
SEAHAWK-1               
1 43820U 18099BQ  26194.67953894  .00005122  00000+0  21923-3 0  9996
2 43820  97.3948 246.7657 0007719 203.9464 156.1415 15.23223646416567
SAUDISAT 5A             
1 43831U 18102A   26194.88040134  .00003225  00000+0  11945-3 0  9995
2 43831  97.3056 255.9490 0010546  47.9039 312.3096 15.28313016419753
SAUDISAT 5B             
1 43833U 18102C   26194.82941725  .00003062  00000+0  11272-3 0  9999
2 43833  97.3166 259.0169 0011329  49.5381 310.6845 15.28556101419862
ISAT                    
1 43879U 18111D   26194.77616691  .00075476  00000+0  60900-3 0  9994
2 43879  97.5860 132.1476 0007696 142.6470 217.5329 15.70609178415333
UWE-4                   
1 43880U 18111E   26194.80072744  .00020115  00000+0  38928-3 0  9990
2 43880  97.5848 124.4503 0005951 200.2503 159.8511 15.47760123414899
D-STAR ONE (SPARROW)    
1 43881U 18111F   26194.80984089  .00175648  00000+0  75834-3 0  9994
2 43881  97.6079 138.3734 0007929 141.3804 218.8034 15.84445843415575
JILIN-1 09              
1 43943U 19005B   26194.83075852  .00002536  00000+0  11844-3 0  9994
2 43943  97.4749 289.5699 0002453  39.6247 320.5167 15.20734174413194
JILIN-1 10              
1 43946U 19005E   26194.81714147  .00003529  00000+0  14005-3 0  9997
2 43946  97.4800 293.6271 0008458 174.3122 185.8214 15.25997779413379
EGYPTSAT-A (MISRSAT-A)  
1 44047U 19008A   26194.85186729 -.00000008  00000+0  65017-5 0  9997
2 44047  98.0190 259.2545 0001721  94.0854 266.0550 14.72334462397167
EMISAT                  
1 44078U 19018A   26194.82827846 -.00000022  00000+0  64209-5 0  9999
2 44078  98.4642 253.4799 0019277 135.0756 225.1998 14.43648416383900
JILIN-1 GAOFEN 3A       
1 44312U 19032C   26194.47753928  .00005820  00000+0  18756-3 0  9990
2 44312  44.9725 212.1831 0004710  91.3248 268.8176 15.33168266391871
WT 1B                   
1 44316U 19032G   26194.68644986  .00006648  00000+0  25140-3 0  9994
2 44316  44.9741 276.2400 0008460  26.7734 333.3584 15.27708959391136
PROX-1                  
1 44339U 19036A   26194.42673105  .00007059  00000+0  66459-3 0  9995
2 44339  23.9956 298.8895 0005861 348.2217  11.8145 14.91225199377397
NPSAT1                  
1 44340U 19036B   26194.77797573  .00002994  00000+0  40076-3 0  9991
2 44340  23.9996  44.5394 0007457 150.7569 209.3345 14.74814175376420
FORMOSAT 7-3            
1 44343U 19036E   26194.81587457  .00002826  00000+0  14882-3 0  9997
2 44343  24.0002 355.2413 0000286 203.5669 156.4822 15.09988930387275
FORMOSAT 7-1            
1 44349U 19036L   26194.38357466  .00001367  00000+0  91126-4 0  9996
2 44349  23.9965 215.7720 0001031 114.5702 245.4906 14.96608288388583
